CUBEBUG-2 (LO-74)       
1 39440U 13066AA  26195.86030594  .00001977  00000+0  18584-3 0  9996
2 39440  97.8912 144.9614 0055738 296.4824  63.0685 14.93965331681120
FUNCUBE-1 (AO-73)       
1 39444U 13066AE  26195.82872940  .00003435  00000+0  21317-3 0  9994
2 39444  97.8288 167.8602 0038005 108.8276 251.7080 15.09814970683831
UWE-3                   
1 39446U 13066AG  26195.81898913  .00001907  00000+0  16664-3 0  9994
2 39446  97.8706 152.0848 0047493 225.7627 133.9691 14.97197060681710
UNISAT-6                
1 40012U 14033C   26195.42923565  .00001149  00000+0  12803-3 0  9998
2 40012  97.7907 347.6681 0044247 340.3441  19.6069 14.88364829650211
DUCHIFAT-1              
1 40021U 14033M   26195.66063348  .00097037  00000+0  77166-3 0  9992
2 40021  98.0414 258.8180 0002763 248.3674 111.7293 15.70920437660058
QB50P1                  
1 40025U 14033R   26195.56334166  .00004361  00000+0  21396-3 0  9996
2 40025  98.0961 208.6368 0010316 126.4314 233.7871 15.18660627657181
LILACSAT-2              
1 40908U 15049K   26195.86934354  .00011713  00000+0  19362-3 0  9991
2 40908  97.4624 233.7755 0008399 142.3468 217.8373 15.52352030600041
FOX-1A (AO-85)          
1 40967U 15058D   26195.71794219  .00001658  00000+0  15662-3 0  9990
2 40967  64.7725 193.4176 0132322  45.9898 315.2028 14.91086579117679
CAS-2T & KS-1Q          
1 41847U 16066G   26195.80491248  .00000542  00000+0  84315-4 0  9997
2 41847  98.3814 271.2251 0342254  45.9444 316.9396 14.44769868508781
RADFXSAT (FOX-1B)       
1 43017U 17073E   26195.58998105  .00004198  00000+0  18450-3 0  9993
2 43017  97.4666  62.2466 0148235 233.5986 125.1498 15.13055354469539
DIWATA-2B               
1 43678U 18084H   26195.84420620  .00001105  00000+0  92649-4 0  9998
2 43678  98.1214  33.2637 0012853  85.4966 274.7724 15.00562547420369
ES'HAIL 2               
1 43700U 18090A   26195.84234366  .00000135  00000+0  00000+0 0  9998
2 43700   0.0180  39.9084 0002192 119.2005 102.6091  1.00270700 27959
FOX-1CLIFF (AO-95)      
1 43770U 18099N   26195.66582853  .00006291  00000+0  23813-3 0  9991
2 43770  97.4374 255.8190 0007215 242.1625 117.8883 15.27266884417416
ITASAT                  
1 43786U 18099AE  26195.68501882  .00003815  00000+0  18333-3 0  9993
2 43786  97.4014 246.6512 0010830 252.4754 107.5298 15.19378278417085
JY1SAT (JO-97)          
1 43803U 18099AX  26195.62172082  .00009262  00000+0  27927-3 0  9994
2 43803  97.4121 258.5644 0006852 159.8317 200.3198 15.34505872417839
UWE-4                   
1 43880U 18111E   26195.77048968  .00021018  00000+0  40605-3 0  9996
2 43880  97.5848 125.4664 0006092 196.0954 164.0103 15.47799907415042
TIANYAN 01              
1 44881U 19093C   26195.84443059  .00000539  00000+0  66747-4 0  9997
2 44881  97.7529 267.4009 0013661   2.9007 357.2286 14.86561767355523
RS-44 & BREEZE-KM R/B   
1 44909U 19096E   26195.83749079 -.00000001  00000+0 -55241-4 0  9994
2 44909  82.5241 321.3319 0218536  79.8236 282.7434 12.79748926305881
SALSAT                  
1 46495U 20068K   26195.54877328  .00004163  00000+0  14541-3 0  9992
2 46495  97.8856 200.2874 0009148 195.2534 164.8431 15.30166467319545
XW-3 (CAS-9)            
1 50466U 21131B   26195.82203723  .00000296  00000+0  10495-3 0  9997
2 50466  98.4992 288.0627 0004638  31.2562 328.8902 14.41381597239095
GREENCUBE (IO-117)      
1 53109U 22080E   26195.26503440 -.00000003  00000+0  00000+0 0  9999
2 53109  70.1411 288.8296 0009054 283.5288  76.4363  6.42583348 93803
UMKA 1 (RS40S)          
1 57172U 23091G   26195.85697068  .00003328  00000+0  15246-3 0  9995
2 57172  97.5038 254.4508 0013113  30.6450 329.5549 15.21118981168213
CUBESX-HSE 3 (RS42S)    
1 57178U 23091N   26195.81050078  .00007499  00000+0  24591-3 0  9997
2 57178  97.5082 261.7575 0009703   3.4903 356.6404 15.31878553168652
MONITOR-3 (RS58S)       
1 57180U 23091Q   26195.83169500  .00005728  00000+0  20982-3 0  9996
2 57180  97.5072 259.4883 0011025  10.9564 349.1913 15.28368399168511
MONITOR-4 (RS57S)       
1 57182U 23091S   26195.80921203  .00005926  00000+0  21638-3 0  9990
2 57182  97.5066 259.4383 0011025  11.5479 348.6011 15.28454875168511
MONITOR-2 (RS39S)       
1 57184U 23091U   26195.84762969  .00002722  00000+0  13262-3 0  9993
2 57184  97.5059 253.9536 0011455  25.2616 334.9176 15.19152475168157
SVYATOBOR 1 (RS60S)     
1 57187U 23091X   26195.84680194  .00004990  00000+0  19066-3 0  9992
2 57187  97.5078 259.8229 0008779   5.8342 354.2998 15.27059543168530
VIZARD-METEO (RS38S)    
1 57189U 23091Z   26195.82644110  .00009794  00000+0  27391-3 0  9997
2 57189  97.5083 265.8802 0005709 341.2489  18.8544 15.36867267168935
POLYTECH-UNIVERSE 3 (R*)
1 57191U 23091AB  26195.80520176  .00002695  00000+0  13034-3 0  9995
2 57191  97.5035 253.4155 0016116  38.9522 321.2870 15.19364660168147
UTMN 2 (RS27S)          
1 57203U 23091AP  26195.81320152  .00007416  00000+0  23727-3 0  9998
2 57203  97.5078 263.4275 0006775 351.7497   8.3632 15.32696362168779
